{
  "type": "FeatureCollection",
  "features": [
    {
      "type": "Feature",
      "properties": {
        "norad_id": 36453,
        "name": "COSMOS 2251 DEB",
        "group": "cosmos-2251-debris",
        "lat": -65.66615430165373,
        "lon": 87.15551213769287,
        "alt_km": 730.2382789291469,
        "timestamp": "2025-12-26T05:31:12.903757+00:00",
        "meta_object_name": "COSMOS 2251 DEB",
        "meta_object_id": "1993-036BBC",
        "meta_epoch": "2025-12-24T15:52:54.435360",
        "meta_mean_motion": 14.52685081,
        "meta_eccentricity": 0.00706677,
        "meta_inclination": 73.9241,
        "meta_ra_of_asc_node": 129.7501,
        "meta_arg_of_pericenter": 29.7309,
        "meta_mean_anomaly": 341.3832,
        "meta_ephemeris_type": 0,
        "meta_classification_type": "U",
        "meta_norad_cat_id": 36453,
        "meta_element_set_no": 999,
        "meta_rev_at_epoch": 84641,
        "meta_bstar": 0.00085702577,
        "meta_mean_motion_dot": 3.602e-05,
        "meta_mean_motion_ddot": 0,
        "tle_line1": "1 36453U 93036BBC 25358.66174115  .00003602  00000+0  85703-3 0  9992",
        "tle_line2": "2 36453  73.9241 129.7501 0070667  29.7309 341.3832 14.52685081846417"
      },
      "geometry": {
        "type": "Point",
        "coordinates": [
          87.15551213769287,
          -65.66615430165373
        ]
      }
    },
    {
      "type": "Feature",
      "properties": {
        "norad_id": 36459,
        "name": "COSMOS 2251 DEB",
        "group": "cosmos-2251-debris",
        "lat": 14.4286242056643,
        "lon": -20.354046461339614,
        "alt_km": 754.0272444194743,
        "timestamp": "2025-12-26T05:31:12.903767+00:00",
        "meta_object_name": "COSMOS 2251 DEB",
        "meta_object_id": "1993-036BBJ",
        "meta_epoch": "2025-12-20T06:23:01.272480",
        "meta_mean_motion": 14.26454896,
        "meta_eccentricity": 0.0113312,
        "meta_inclination": 74.0464,
        "meta_ra_of_asc_node": 346.1968,
        "meta_arg_of_pericenter": 79.9168,
        "meta_mean_anomaly": 281.4741,
        "meta_ephemeris_type": 0,
        "meta_classification_type": "U",
        "meta_norad_cat_id": 36459,
        "meta_element_set_no": 999,
        "meta_rev_at_epoch": 7989,
        "meta_bstar": 0.00092616994,
        "meta_mean_motion_dot": 2.362e-05,
        "meta_mean_motion_ddot": 0,
        "tle_line1": "1 36459U 93036BBJ 25354.26598695  .00002362  00000+0  92617-3 0  9997",
        "tle_line2": "2 36459  74.0464 346.1968 0113312  79.9168 281.4741 14.26454896 79891"
      },
      "geometry": {
        "type": "Point",
        "coordinates": [
          -20.354046461339614,
          14.4286242056643
        ]
      }
    },
    {
      "type": "Feature",
      "properties": {
        "norad_id": 36470,
        "name": "COSMOS 2251 DEB",
        "group": "cosmos-2251-debris",
        "lat": 44.78985849390504,
        "lon": -116.93656307001154,
        "alt_km": 522.1764447964615,
        "timestamp": "2025-12-26T05:31:12.903777+00:00",
        "meta_object_name": "COSMOS 2251 DEB",
        "meta_object_id": "1993-036BBV",
        "meta_epoch": "2025-12-15T00:13:00.014016",
        "meta_mean_motion": 15.07582269,
        "meta_eccentricity": 0.00222568,
        "meta_inclination": 73.8449,
        "meta_ra_of_asc_node": 249.6845,
        "meta_arg_of_pericenter": 78.1368,
        "meta_mean_anomaly": 282.2316,
        "meta_ephemeris_type": 0,
        "meta_classification_type": "U",
        "meta_norad_cat_id": 36470,
        "meta_element_set_no": 999,
        "meta_rev_at_epoch": 66128,
        "meta_bstar": 0.0018721064,
        "meta_mean_motion_dot": 0.0002872,
        "meta_mean_motion_ddot": 0,
        "tle_line1": "1 36470U 93036BBV 25349.00902794  .00028720  00000+0  18721-2 0  9994",
        "tle_line2": "2 36470  73.8449 249.6845 0022256  78.1368 282.2316 15.07582269661287"
      },
      "geometry": {
        "type": "Point",
        "coordinates": [
          -116.93656307001154,
          44.78985849390504
        ]
      }
    },
    {
      "type": "Feature",
      "properties": {
        "norad_id": 36528,
        "name": "COSMOS 2251 DEB",
        "group": "cosmos-2251-debris",
        "lat": -23.983055207948425,
        "lon": 113.31104106263788,
        "alt_km": 853.4279575967385,
        "timestamp": "2025-12-26T05:31:12.903787+00:00",
        "meta_object_name": "COSMOS 2251 DEB",
        "meta_object_id": "1993-036BCN",
        "meta_epoch": "2025-12-25T14:32:07.404000",
        "meta_mean_motion": 14.30715983,
        "meta_eccentricity": 0.0084121,
        "meta_inclination": 74.0177,
        "meta_ra_of_asc_node": 121.7735,
        "meta_arg_of_pericenter": 168.3638,
        "meta_mean_anomaly": 191.9483,
        "meta_ephemeris_type": 0,
        "meta_classification_type": "U",
        "meta_norad_cat_id": 36528,
        "meta_element_set_no": 999,
        "meta_rev_at_epoch": 64611,
        "meta_bstar": 0.0012336,
        "meta_mean_motion_dot": 3.33e-05,
        "meta_mean_motion_ddot": 0,
        "tle_line1": "1 36528U 93036BCN 25359.60564125  .00003330  00000+0  12336-2 0  9993",
        "tle_line2": "2 36528  74.0177 121.7735 0084121 168.3638 191.9483 14.30715983646113"
      },
      "geometry": {
        "type": "Point",
        "coordinates": [
          113.31104106263788,
          -23.983055207948425
        ]
      }
    },
    {
      "type": "Feature",
      "properties": {
        "norad_id": 36533,
        "name": "COSMOS 2251 DEB",
        "group": "cosmos-2251-debris",
        "lat": -16.483672963250868,
        "lon": 84.59744117008243,
        "alt_km": 740.5027411913106,
        "timestamp": "2025-12-26T05:31:12.903797+00:00",
        "meta_object_name": "COSMOS 2251 DEB",
        "meta_object_id": "1993-036BCT",
        "meta_epoch": "2025-12-24T23:47:29.202144",
        "meta_mean_motion": 14.49859831,
        "meta_eccentricity": 0.00492005,
        "meta_inclination": 74.0122,
        "meta_ra_of_asc_node": 91.7921,
        "meta_arg_of_pericenter": 238.8301,
        "meta_mean_anomaly": 120.8031,
        "meta_ephemeris_type": 0,
        "meta_classification_type": "U",
        "meta_norad_cat_id": 36533,
        "meta_element_set_no": 999,
        "meta_rev_at_epoch": 84662,
        "meta_bstar": 0.00052465602,
        "meta_mean_motion_dot": 2.029e-05,
        "meta_mean_motion_ddot": 0,
        "tle_line1": "1 36533U 93036BCT 25358.99131021  .00002029  00000+0  52466-3 0  9998",
        "tle_line2": "2 36533  74.0122  91.7921 0049200 238.8301 120.8031 14.49859831846620"
      },
      "geometry": {
        "type": "Point",
        "coordinates": [
          84.59744117008243,
          -16.483672963250868
        ]
      }
    },
    {
      "type": "Feature",
      "properties": {
        "norad_id": 36539,
        "name": "COSMOS 2251 DEB",
        "group": "cosmos-2251-debris",
        "lat": -68.22940277186433,
        "lon": -16.393468861612575,
        "alt_km": 709.3602598992338,
        "timestamp": "2025-12-26T05:31:12.903806+00:00",
        "meta_object_name": "COSMOS 2251 DEB",
        "meta_object_id": "1993-036BCZ",
        "meta_epoch": "2025-12-25T11:46:03.342144",
        "meta_mean_motion": 14.59375412,
        "meta_eccentricity": 0.002634,
        "meta_inclination": 74.023,
        "meta_ra_of_asc_node": 30.8548,
        "meta_arg_of_pericenter": 173.4832,
        "meta_mean_anomaly": 186.6682,
        "meta_ephemeris_type": 0,
        "meta_classification_type": "U",
        "meta_norad_cat_id": 36539,
        "meta_element_set_no": 999,
        "meta_rev_at_epoch": 84133,
        "meta_bstar": 0.00061651,
        "meta_mean_motion_dot": 2.904e-05,
        "meta_mean_motion_ddot": 0,
        "tle_line1": "1 36539U 93036BCZ 25359.49031646  .00002904  00000+0  61651-3 0  9990",
        "tle_line2": "2 36539  74.0230  30.8548 0026340 173.4832 186.6682 14.59375412841332"
      },
      "geometry": {
        "type": "Point",
        "coordinates": [
          -16.393468861612575,
          -68.22940277186433
        ]
      }
    },
    {
      "type": "Feature",
      "properties": {
        "norad_id": 36540,
        "name": "COSMOS 2251 DEB",
        "group": "cosmos-2251-debris",
        "lat": -26.816691498520456,
        "lon": -16.852333990087963,
        "alt_km": 693.1658362205371,
        "timestamp": "2025-12-26T05:31:12.903816+00:00",
        "meta_object_name": "COSMOS 2251 DEB",
        "meta_object_id": "1993-036BDA",
        "meta_epoch": "2025-12-25T20:20:20.888736",
        "meta_mean_motion": 14.58611213,
        "meta_eccentricity": 0.00145622,
        "meta_inclination": 74.0278,
        "meta_ra_of_asc_node": 155.5515,
        "meta_arg_of_pericenter": 225.6028,
        "meta_mean_anomaly": 134.3946,
        "meta_ephemeris_type": 0,
        "meta_classification_type": "U",
        "meta_norad_cat_id": 36540,
        "meta_element_set_no": 999,
        "meta_rev_at_epoch": 86201,
        "meta_bstar": 0.0013475522,
        "meta_mean_motion_dot": 6.259e-05,
        "meta_mean_motion_ddot": 0,
        "tle_line1": "1 36540U 93036BDA 25359.84746399  .00006259  00000+0  13476-2 0  9997",
        "tle_line2": "2 36540  74.0278 155.5515 0014562 225.6028 134.3946 14.58611213862017"
      },
      "geometry": {
        "type": "Point",
        "coordinates": [
          -16.852333990087963,
          -26.816691498520456
        ]
      }
    }
  ]
}